[{"OBJECT_NAME":"EOS-08","OBJECT_ID":"2024-147A","EPOCH":"2026-03-09T22:14:35.464704","MEAN_MOTION":15.45433116,"ECCENTRICITY":0.00043204,"INCLINATION":37.3815,"RA_OF_ASC_NODE":324.8107,"ARG_OF_PERICENTER":300.1628,"MEAN_ANOMALY":59.8707,"EPHEMERIS_TYPE":0,"CLASSIFICATION_TYPE":"U","NORAD_CAT_ID":60454,"ELEMENT_SET_NO":999,"REV_AT_EPOCH":8770,"BSTAR":0.00090257159,"MEAN_MOTION_DOT":0.00044536,"MEAN_MOTION_DDOT":0},{"OBJECT_NAME":"AE1D","OBJECT_ID":"2025-009K","EPOCH":"2026-03-09T16:59:52.875168","MEAN_MOTION":15.46504866,"ECCENTRICITY":0.00028074,"INCLINATION":97.3999,"RA_OF_ASC_NODE":155.4222,"ARG_OF_PERICENTER":303.815,"MEAN_ANOMALY":56.2832,"EPHEMERIS_TYPE":0,"CLASSIFICATION_TYPE":"U","NORAD_CAT_ID":62618,"ELEMENT_SET_NO":999,"REV_AT_EPOCH":6400,"BSTAR":0.0012159067,"MEAN_MOTION_DOT":0.00060646,"MEAN_MOTION_DDOT":0}]
